[{"OBJECT_NAME":"KUIPER-00223","OBJECT_ID":"2026-030V","EPOCH":"2026-03-14T14:33:39.737952","MEAN_MOTION":15.34341935,"ECCENTRICITY":0.00132631,"INCLINATION":51.8848,"RA_OF_ASC_NODE":195.7749,"ARG_OF_PERICENTER":77.3163,"MEAN_ANOMALY":282.9304,"EPHEMERIS_TYPE":0,"CLASSIFICATION_TYPE":"U","NORAD_CAT_ID":67783,"ELEMENT_SET_NO":999,"REV_AT_EPOCH":584,"BSTAR":0.0012383296,"MEAN_MOTION_DOT":0.00041763,"MEAN_MOTION_DDOT":0},{"OBJECT_NAME":"KUIPER-00225","OBJECT_ID":"2026-030W","EPOCH":"2026-03-14T16:54:01.911456","MEAN_MOTION":15.36169074,"ECCENTRICITY":0.0005169,"INCLINATION":51.8804,"RA_OF_ASC_NODE":194.9301,"ARG_OF_PERICENTER":48.9319,"MEAN_ANOMALY":311.2113,"EPHEMERIS_TYPE":0,"CLASSIFICATION_TYPE":"U","NORAD_CAT_ID":67784,"ELEMENT_SET_NO":999,"REV_AT_EPOCH":586,"BSTAR":0.0023673792,"MEAN_MOTION_DOT":0.00085325,"MEAN_MOTION_DDOT":0},{"OBJECT_NAME":"KUIPER-00226","OBJECT_ID":"2026-030X","EPOCH":"2026-03-14T01:35:18.228480","MEAN_MOTION":15.30600799,"ECCENTRICITY":0.001836,"INCLINATION":51.8821,"RA_OF_ASC_NODE":198.8802,"ARG_OF_PERICENTER":81.4693,"MEAN_ANOMALY":278.8371,"EPHEMERIS_TYPE":0,"CLASSIFICATION_TYPE":"U","NORAD_CAT_ID":67785,"ELEMENT_SET_NO":999,"REV_AT_EPOCH":575,"BSTAR":0.0073304492,"MEAN_MOTION_DOT":0.00227464,"MEAN_MOTION_DDOT":0},{"OBJECT_NAME":"KUIPER-00259","OBJECT_ID":"2026-030Y","EPOCH":"2026-03-14T20:24:39.197088","MEAN_MOTION":15.35326877,"ECCENTRICITY":0.00091506,"INCLINATION":51.8813,"RA_OF_ASC_NODE":194.4075,"ARG_OF_PERICENTER":60.9255,"MEAN_ANOMALY":299.2647,"EPHEMERIS_TYPE":0,"CLASSIFICATION_TYPE":"U","NORAD_CAT_ID":67786,"ELEMENT_SET_NO":999,"REV_AT_EPOCH":588,"BSTAR":0.0011713596,"MEAN_MOTION_DOT":0.00040688,"MEAN_MOTION_DDOT":0},{"OBJECT_NAME":"KUIPER-00260","OBJECT_ID":"2026-030Z","EPOCH":"2026-03-14T13:30:37.406016","MEAN_MOTION":15.36750969,"ECCENTRICITY":0.00015537,"INCLINATION":51.8798,"RA_OF_ASC_NODE":195.4863,"ARG_OF_PERICENTER":52.6453,"MEAN_ANOMALY":307.4674,"EPHEMERIS_TYPE":0,"CLASSIFICATION_TYPE":"U","NORAD_CAT_ID":67787,"ELEMENT_SET_NO":999,"REV_AT_EPOCH":575,"BSTAR":0.001185629,"MEAN_MOTION_DOT":0.00043092,"MEAN_MOTION_DDOT":0},{"OBJECT_NAME":"KUIPER-00262","OBJECT_ID":"2026-030AA","EPOCH":"2026-03-14T18:04:41.180160","MEAN_MOTION":15.36973818,"ECCENTRICITY":0.00011048,"INCLINATION":51.8816,"RA_OF_ASC_NODE":194.5172,"ARG_OF_PERICENTER":17.3563,"MEAN_ANOMALY":342.7461,"EPHEMERIS_TYPE":0,"CLASSIFICATION_TYPE":"U","NORAD_CAT_ID":67788,"ELEMENT_SET_NO":999,"REV_AT_EPOCH":587,"BSTAR":0.0016876212,"MEAN_MOTION_DOT":0.00062104,"MEAN_MOTION_DDOT":0},{"OBJECT_NAME":"KUIPER-00266","OBJECT_ID":"2026-030AB","EPOCH":"2026-03-14T14:13:54.013728","MEAN_MOTION":15.30679755,"ECCENTRICITY":0.0023061,"INCLINATION":51.8822,"RA_OF_ASC_NODE":196.4088,"ARG_OF_PERICENTER":87.6685,"MEAN_ANOMALY":272.6939,"EPHEMERIS_TYPE":0,"CLASSIFICATION_TYPE":"U","NORAD_CAT_ID":67789,"ELEMENT_SET_NO":999,"REV_AT_EPOCH":583,"BSTAR":0.0011588291,"MEAN_MOTION_DOT":0.00034939,"MEAN_MOTION_DDOT":0},{"OBJECT_NAME":"KUIPER-00268","OBJECT_ID":"2026-030AC","EPOCH":"2026-03-14T16:49:33.262752","MEAN_MOTION":15.3626289,"ECCENTRICITY":0.00033176,"INCLINATION":51.8842,"RA_OF_ASC_NODE":194.9212,"ARG_OF_PERICENTER":48.1228,"MEAN_ANOMALY":312.0041,"EPHEMERIS_TYPE":0,"CLASSIFICATION_TYPE":"U","NORAD_CAT_ID":67790,"ELEMENT_SET_NO":999,"REV_AT_EPOCH":586,"BSTAR":0.0012586821,"MEAN_MOTION_DOT":0.00045069,"MEAN_MOTION_DDOT":0},{"OBJECT_NAME":"KUIPER-00270","OBJECT_ID":"2026-030AD","EPOCH":"2026-03-14T14:21:15.676704","MEAN_MOTION":15.34875808,"ECCENTRICITY":0.0010798,"INCLINATION":51.8832,"RA_OF_ASC_NODE":195.7132,"ARG_OF_PERICENTER":72.2865,"MEAN_ANOMALY":287.9298,"EPHEMERIS_TYPE":0,"CLASSIFICATION_TYPE":"U","NORAD_CAT_ID":67791,"ELEMENT_SET_NO":999,"REV_AT_EPOCH":584,"BSTAR":0.0013822334,"MEAN_MOTION_DOT":0.00047458,"MEAN_MOTION_DDOT":0},{"OBJECT_NAME":"KUIPER-00274","OBJECT_ID":"2026-030AE","EPOCH":"2026-03-14T17:12:28.170144","MEAN_MOTION":15.2972661,"ECCENTRICITY":0.00189237,"INCLINATION":51.8837,"RA_OF_ASC_NODE":195.7497,"ARG_OF_PERICENTER":86.5724,"MEAN_ANOMALY":273.7424,"EPHEMERIS_TYPE":0,"CLASSIFICATION_TYPE":"U","NORAD_CAT_ID":67792,"ELEMENT_SET_NO":999,"REV_AT_EPOCH":585,"BSTAR":0.0010287284,"MEAN_MOTION_DOT":0.00029966,"MEAN_MOTION_DDOT":0},{"OBJECT_NAME":"KUIPER-00275","OBJECT_ID":"2026-030AF","EPOCH":"2026-03-14T17:24:11.539584","MEAN_MOTION":15.34999502,"ECCENTRICITY":0.00094953,"INCLINATION":51.8848,"RA_OF_ASC_NODE":195.0775,"ARG_OF_PERICENTER":67.853,"MEAN_ANOMALY":292.3462,"EPHEMERIS_TYPE":0,"CLASSIFICATION_TYPE":"U","NORAD_CAT_ID":67793,"ELEMENT_SET_NO":999,"REV_AT_EPOCH":586,"BSTAR":0.001056419,"MEAN_MOTION_DOT":0.00036256,"MEAN_MOTION_DDOT":0},{"OBJECT_NAME":"KUIPER-00276","OBJECT_ID":"2026-030AG","EPOCH":"2026-03-14T22:00:01.999584","MEAN_MOTION":15.29958365,"ECCENTRICITY":0.00182486,"INCLINATION":51.8828,"RA_OF_ASC_NODE":194.8213,"ARG_OF_PERICENTER":82.7587,"MEAN_ANOMALY":284.486,"EPHEMERIS_TYPE":0,"CLASSIFICATION_TYPE":"U","NORAD_CAT_ID":67794,"ELEMENT_SET_NO":999,"REV_AT_EPOCH":559,"BSTAR":0.00019431475,"MEAN_MOTION_DOT":5.379e-5,"MEAN_MOTION_DDOT":0},{"OBJECT_NAME":"KUIPER-00279","OBJECT_ID":"2026-030AH","EPOCH":"2026-03-14T14:01:18.420672","MEAN_MOTION":15.35516128,"ECCENTRICITY":0.00062831,"INCLINATION":51.8798,"RA_OF_ASC_NODE":195.6211,"ARG_OF_PERICENTER":58.8248,"MEAN_ANOMALY":301.3354,"EPHEMERIS_TYPE":0,"CLASSIFICATION_TYPE":"U","NORAD_CAT_ID":67795,"ELEMENT_SET_NO":999,"REV_AT_EPOCH":584,"BSTAR":0.00078005779,"MEAN_MOTION_DOT":0.00027065,"MEAN_MOTION_DDOT":0}]
