KUIPER-00223            
1 67783U 26030V   26073.60670993  .00041763  00000+0  12383-2 0  9999
2 67783  51.8848 195.7749 0013263  77.3163 282.9304 15.34341935  5844
KUIPER-00225            
1 67784U 26030W   26073.70418879  .00085325  00000+0  23674-2 0  9991
2 67784  51.8804 194.9301 0005169  48.9319 311.2113 15.36169074  5865
KUIPER-00226            
1 67785U 26030X   26073.06618320  .00227464  00000+0  73304-2 0  9991
2 67785  51.8821 198.8802 0018360  81.4693 278.8371 15.30600799  5758
KUIPER-00259            
1 67786U 26030Y   26073.85045367  .00040688  00000+0  11714-2 0  9992
2 67786  51.8813 194.4075 0009150  60.9255 299.2647 15.35326877  5881
KUIPER-00260            
1 67787U 26030Z   26073.56293294  .00043092  00000+0  11856-2 0  9994
2 67787  51.8798 195.4863 0001553  52.6453 307.4674 15.36750969  5759
KUIPER-00262            
1 67788U 26030AA  26073.75325440  .00062104  00000+0  16876-2 0  9997
2 67788  51.8816 194.5172 0001104  17.3563 342.7461 15.36973818  5875
KUIPER-00266            
1 67789U 26030AB  26073.59298627  .00034939  00000+0  11588-2 0  9996
2 67789  51.8822 196.4088 0023061  87.6685 272.6939 15.30679755  5835
KUIPER-00268            
1 67790U 26030AC  26073.70107943  .00045069  00000+0  12587-2 0  9997
2 67790  51.8842 194.9212 0003317  48.1228 312.0041 15.36262890  5868
KUIPER-00270            
1 67791U 26030AD  26073.59809811  .00047458  00000+0  13822-2 0  9995
2 67791  51.8832 195.7132 0010798  72.2865 287.9298 15.34875808  5843
KUIPER-00274            
1 67792U 26030AE  26073.71699271  .00029966  00000+0  10287-2 0  9993
2 67792  51.8837 195.7497 0018923  86.5724 273.7424 15.29726610  5858
KUIPER-00275            
1 67793U 26030AF  26073.72513356  .00036256  00000+0  10564-2 0  9992
2 67793  51.8848 195.0775 0009495  67.8530 292.3462 15.34999502  5862
KUIPER-00276            
1 67794U 26030AG  26073.91668981  .00005379  00000+0  19431-3 0  9994
2 67794  51.8828 194.8213 0018248  82.7587 284.4860 15.29958365  5599
KUIPER-00279            
1 67795U 26030AH  26073.58424098  .00027065  00000+0  78006-3 0  9996
2 67795  51.8798 195.6211 0006283  58.8248 301.3354 15.35516128  5846
